[{"OBJECT_NAME":"STARLINK-2421","OBJECT_ID":"2021-027G","EPOCH":"2026-03-09T13:27:37.697472","MEAN_MOTION":15.3018961,"ECCENTRICITY":0.0001338,"INCLINATION":53.1619,"RA_OF_ASC_NODE":155.5447,"ARG_OF_PERICENTER":74.38,"MEAN_ANOMALY":285.7349,"EPHEMERIS_TYPE":0,"CLASSIFICATION_TYPE":"U","NORAD_CAT_ID":48098,"ELEMENT_SET_NO":999,"REV_AT_EPOCH":27263,"BSTAR":-3.0297e-5,"MEAN_MOTION_DOT":-1.256e-5,"MEAN_MOTION_DDOT":0},{"OBJECT_NAME":"CERISE","OBJECT_ID":"1995-033B","EPOCH":"2026-03-09T23:11:27.589056","MEAN_MOTION":15.32047731,"ECCENTRICITY":0.00057118,"INCLINATION":98.325,"RA_OF_ASC_NODE":273.5192,"ARG_OF_PERICENTER":211.8754,"MEAN_ANOMALY":148.214,"EPHEMERIS_TYPE":0,"CLASSIFICATION_TYPE":"U","NORAD_CAT_ID":23606,"ELEMENT_SET_NO":999,"REV_AT_EPOCH":66468,"BSTAR":0.00062940675,"MEAN_MOTION_DOT":0.00019422,"MEAN_MOTION_DDOT":0}]
